[{"OBJECT_NAME":"YAOGAN-36 05C","OBJECT_ID":"2023-106E","EPOCH":"2026-03-09T23:02:42.692640","MEAN_MOTION":15.17284181,"ECCENTRICITY":0.00091151,"INCLINATION":34.9946,"RA_OF_ASC_NODE":339.3602,"ARG_OF_PERICENTER":188.1733,"MEAN_ANOMALY":171.8833,"EPHEMERIS_TYPE":0,"CLASSIFICATION_TYPE":"U","NORAD_CAT_ID":57456,"ELEMENT_SET_NO":999,"REV_AT_EPOCH":14578,"BSTAR":0.00035217341,"MEAN_MOTION_DOT":7.158e-5,"MEAN_MOTION_DDOT":0},{"OBJECT_NAME":"HAWK-13A","OBJECT_ID":"2026-004AF","EPOCH":"2026-03-09T21:39:12.868128","MEAN_MOTION":15.18213262,"ECCENTRICITY":0.00045521,"INCLINATION":97.4446,"RA_OF_ASC_NODE":69.2716,"ARG_OF_PERICENTER":336.6017,"MEAN_ANOMALY":23.5009,"EPHEMERIS_TYPE":0,"CLASSIFICATION_TYPE":"U","NORAD_CAT_ID":67392,"ELEMENT_SET_NO":999,"REV_AT_EPOCH":869,"BSTAR":0.00033139107,"MEAN_MOTION_DOT":6.715e-5,"MEAN_MOTION_DDOT":0}]
